STARLINK-34637          
1 64776U 25147X   26156.60785242  .00023652  00000+0  70905-3 0  9994
2 64776  53.1569 193.5806 0001234 100.8853 259.2288 15.34394513 52155
STARLINK-34547          
1 64777U 25147Y   26156.76328245 -.00039010  00000+0 -11499-2 0  9997
2 64777  53.1588 192.4227 0001649  52.3701 307.7451 15.34383815 52193
STARLINK-34537          
1 64778U 25147Z   26156.36894957  .00024742  00000+0  84438-3 0  9990
2 64778  53.1583 172.6095 0000964 108.5820 251.5286 15.30213252 52529
STARLINK-34585          
1 64779U 25147AA  26156.73601589  .00010306  00000+0  31562-3 0  9990
2 64779  53.1567 192.9465 0002031 144.1499 215.9641 15.34411699 52194
STARLINK-34491          
1 64780U 25147AB  26156.69603530  .00056367  00000+0  16697-2 0  9993
2 64780  53.1585 192.7078 0001198  79.3815 280.7323 15.34347457 52241
STARLINK-34582          
1 64781U 25147AC  26156.75486444  .00055764  00000+0  16516-2 0  9994
2 64781  53.1589 192.3622 0001330  72.3624 287.7524 15.34356324 52182
STARLINK-34482          
1 64782U 25147AD  26156.40402787  .00019439  00000+0  58488-3 0  9999
2 64782  53.1552 194.4362 0001082  47.2335 312.8758 15.34404243 52230
STARLINK-34629          
1 64790U 25150A   26156.37227544  .00004376  00000+0  37421-3 0  9992
2 64790  70.0002 273.2663 0003037 267.1299  92.9512 14.98338337 49656
STARLINK-34697          
1 64791U 25150B   26156.71009346  .00009602  00000+0  81119-3 0  9999
2 64791  70.0003 272.4328 0003349 270.2295  89.8481 14.98341571 49704
STARLINK-34632          
1 64792U 25150C   26156.60176826  .00004417  00000+0  37766-3 0  9994
2 64792  70.0006 272.7384 0003154 269.1130  90.9668 14.98338095 49686
STARLINK-34693          
1 64793U 25150D   26157.02320320  .00004717  00000+0  40271-3 0  9990
2 64793  70.0008 271.9185 0003176 265.7291  94.3505 14.98340048 49749
STARLINK-34666          
1 64794U 25150E   26157.02303887  .00004494  00000+0  38405-3 0  9998
2 64794  70.0005 271.9236 0003141 270.1903  89.8896 14.98342445 49741
STARLINK-34567          
1 64795U 25150F   26157.03136301  .00005763  00000+0  49035-3 0  9996
2 64795  70.0009 271.5502 0003492 268.1786  91.8973 14.98332075 49751
STARLINK-34646          
1 64796U 25150G   26156.60594803  .00002971  00000+0  25660-3 0  9990
2 64796  70.0008 272.8674 0003021 260.6352  99.4465 14.98341490 50572
STARLINK-34641          
1 64797U 25150H   26157.05223675  .00003371  00000+0  29017-3 0  9992
2 64797  70.0004 271.6190 0003317 268.3473  91.7306 14.98331205 50589
STARLINK-34649          
1 64798U 25150J   26156.60578496  .00004058  00000+0  34766-3 0  9997
2 64798  70.0008 272.8759 0003253 266.3092  93.7695 14.98336624 50574
STARLINK-34662          
1 64799U 25150K   26157.03152571  .00004829  00000+0  41212-3 0  9998
2 64799  70.0006 271.5519 0003077 269.4654  90.6153 14.98341524 49753
STARLINK-34660          
1 64800U 25150L   26157.04805786  .00004536  00000+0  38758-3 0  9991
2 64800  70.0010 271.6069 0003241 269.8867  90.1921 14.98339531 49758
STARLINK-34604          
1 64801U 25150M   26157.00003472 -.00033891  00000+0 -28445-2 0  9999
2 64801  70.0000 271.8003 0003309 270.4971 123.0819 14.98352901  5780
STARLINK-34658          
1 64802U 25150N   26157.01886560  .00004198  00000+0  35933-3 0  9995
2 64802  70.0009 271.9033 0003268 265.6473  94.4312 14.98339300 49742
STARLINK-34620          
1 64803U 25150P   26156.48495455  .00002568  00000+0  22291-3 0  9997
2 64803  70.0001 273.2458 0003335 275.0361  85.0418 14.98326502 49661
STARLINK-34633          
1 64804U 25150Q   26157.05657151  .00005260  00000+0  44822-3 0  9991
2 64804  70.0009 271.6302 0003154 265.8103  94.2696 14.98339651 49759
STARLINK-34624          
1 64805U 25150R   26156.60995953  .00004079  00000+0  34938-3 0  9991
2 64805  70.0008 272.8863 0002961 271.1880  88.8940 14.98338390 49683
STARLINK-34664          
1 64806U 25150S   26157.02718629  .00006218  00000+0  52820-3 0  9999
2 64806  70.0009 271.5326 0003377 266.5524  93.5249 14.98345350 49757
STARLINK-34663          
1 64807U 25150T   26156.59743591  .00002839  00000+0  24561-3 0  9993
2 64807  70.0009 272.8429 0003272 270.5765  89.5020 14.98335393 49682
STARLINK-34696          
1 64808U 25150U   26157.06892354  .00006426  00000+0  54556-3 0  9992
2 64808  69.9987 271.6772 0003993 271.6016  88.4686 14.98347620 49754
STARLINK-34675          
1 64809U 25150V   26157.05640480  .00009864  00000+0  83295-3 0  9994
2 64809  70.0004 271.6384 0003714 273.0471  87.0263 14.98346046 49756
STARLINK-34608          
1 64810U 25150W   26156.57238978  .00003528  00000+0  30322-3 0  9991
2 64810  70.0001 272.7557 0003201 269.0739  91.0053 14.98338453 49689
STARLINK-34669          
1 64811U 25150X   26157.03555020  .00009066  00000+0  76642-3 0  9992
2 64811  70.0003 271.5582 0003225 270.9218  89.1572 14.98340802 49759
STARLINK-34644          
1 64812U 25150Y   26156.61012090  .00004005  00000+0  34315-3 0  9990
2 64812  70.0009 272.8376 0003186 270.5340  89.5454 14.98338771 49686
