OBJECT_NAME,OBJECT_ID,EPOCH,MEAN_MOTION,ECCENTRICITY,INCLINATION,RA_OF_ASC_NODE,ARG_OF_PERICENTER,MEAN_ANOMALY,EPHEMERIS_TYPE,CLASSIFICATION_TYPE,NORAD_CAT_ID,ELEMENT_SET_NO,REV_AT_EPOCH,BSTAR,MEAN_MOTION_DOT,MEAN_MOTION_DDOT
STARLINK-34637,2025-147X,2026-06-05T14:35:18.449088,15.34394513,.00012348,53.1569,193.5806,100.8853,259.2288,0,U,64776,999,5215,.70904962E-3,.23652E-3,0
STARLINK-34547,2025-147Y,2026-06-05T18:19:07.603680,15.34383815,.00016496,53.1588,192.4227,52.3701,307.7451,0,U,64777,999,5219,-.11499434E-2,-.3901E-3,0
STARLINK-34537,2025-147Z,2026-06-05T08:51:17.242848,15.30213252,.00009646,53.1583,172.6095,108.5820,251.5286,0,U,64778,999,5252,.84438009E-3,.24742E-3,0
STARLINK-34585,2025-147AA,2026-06-05T17:39:51.772896,15.34411699,.00020313,53.1567,192.9465,144.1499,215.9641,0,U,64779,999,5219,.31562008E-3,.10306E-3,0
STARLINK-34491,2025-147AB,2026-06-05T16:42:17.449920,15.34347457,.00011984,53.1585,192.7078,79.3815,280.7323,0,U,64780,999,5224,.16696786E-2,.56367E-3,0
STARLINK-34582,2025-147AC,2026-06-05T18:07:00.287616,15.34356324,.00013309,53.1589,192.3622,72.3624,287.7524,0,U,64781,999,5218,.16516199E-2,.55764E-3,0
STARLINK-34482,2025-147AD,2026-06-05T09:41:48.007968,15.34404243,.00010821,53.1552,194.4362,47.2335,312.8758,0,U,64782,999,5223,.58488365E-3,.19439E-3,0
STARLINK-34629,2025-150A,2026-06-05T08:56:04.598016,14.98338337,.00030379,70.0002,273.2663,267.1299,92.9512,0,U,64790,999,4965,.37421489E-3,.4376E-4,0
STARLINK-34697,2025-150B,2026-06-05T17:02:32.074944,14.98341571,.00033497,70.0003,272.4328,270.2295,89.8481,0,U,64791,999,4970,.8111867E-3,.9602E-4,0
STARLINK-34632,2025-150C,2026-06-05T14:26:32.777664,14.98338095,.00031544,70.0006,272.7384,269.1130,90.9668,0,U,64792,999,4968,.37766081E-3,.4417E-4,0
STARLINK-34693,2025-150D,2026-06-06T00:33:24.756480,14.98340048,.00031766,70.0008,271.9185,265.7291,94.3505,0,U,64793,999,4974,.40270529E-3,.4717E-4,0
STARLINK-34666,2025-150E,2026-06-06T00:33:10.558368,14.98342445,.00031414,70.0005,271.9236,270.1903,89.8896,0,U,64794,999,4974,.38405321E-3,.4494E-4,0
STARLINK-34567,2025-150F,2026-06-06T00:45:09.764064,14.98332075,.00034925,70.0009,271.5502,268.1786,91.8973,0,U,64795,999,4975,.49034505E-3,.5763E-4,0
STARLINK-34646,2025-150G,2026-06-05T14:32:33.909792,14.98341490,.00030211,70.0008,272.8674,260.6352,99.4465,0,U,64796,999,5057,.25660496E-3,.2971E-4,0
STARLINK-34641,2025-150H,2026-06-06T01:15:13.255200,14.98331205,.00033172,70.0004,271.6190,268.3473,91.7306,0,U,64797,999,5058,.29016596E-3,.3371E-4,0
STARLINK-34649,2025-150J,2026-06-05T14:32:19.820544,14.98336624,.00032538,70.0008,272.8759,266.3092,93.7695,0,U,64798,999,5057,.34766126E-3,.4058E-4,0
STARLINK-34662,2025-150K,2026-06-06T00:45:23.821344,14.98341524,.00030772,70.0006,271.5519,269.4654,90.6153,0,U,64799,999,4975,.4121232E-3,.4829E-4,0
STARLINK-34660,2025-150L,2026-06-06T01:09:12.199104,14.98339531,.00032413,70.0010,271.6069,269.8867,90.1921,0,U,64800,999,4975,.38757565E-3,.4536E-4,0
STARLINK-34604,2025-150M,2026-06-06T00:00:02.999808,14.98352901,.00033099,70.0000,271.8003,270.4971,123.0819,0,U,64801,999,578,-.28445422E-2,-.33891E-3,0
STARLINK-34658,2025-150N,2026-06-06T00:27:09.987840,14.98339300,.00032684,70.0009,271.9033,265.6473,94.4312,0,U,64802,999,4974,.35933342E-3,.4198E-4,0
STARLINK-34620,2025-150P,2026-06-05T11:38:20.073120,14.98326502,.00033351,70.0001,273.2458,275.0361,85.0418,0,U,64803,999,4966,.22291379E-3,.2568E-4,0
STARLINK-34633,2025-150Q,2026-06-06T01:21:27.778464,14.98339651,.0003154,70.0009,271.6302,265.8103,94.2696,0,U,64804,999,4975,.44821529E-3,.526E-4,0
STARLINK-34624,2025-150R,2026-06-05T14:38:20.503392,14.98338390,.00029617,70.0008,272.8863,271.1880,88.8940,0,U,64805,999,4968,.34937685E-3,.4079E-4,0
STARLINK-34664,2025-150S,2026-06-06T00:39:08.895456,14.98345350,.00033777,70.0009,271.5326,266.5524,93.5249,0,U,64806,999,4975,.52819962E-3,.6218E-4,0
STARLINK-34663,2025-150T,2026-06-05T14:20:18.462624,14.98335393,.0003272,70.0009,272.8429,270.5765,89.5020,0,U,64807,999,4968,.24561415E-3,.2839E-4,0
STARLINK-34696,2025-150U,2026-06-06T01:39:14.993856,14.98347620,.00039939,69.9987,271.6772,271.6016,88.4686,0,U,64808,999,4975,.54555859E-3,.6426E-4,0
STARLINK-34675,2025-150V,2026-06-06T01:21:13.374720,14.98346046,.00037144,70.0004,271.6384,273.0471,87.0263,0,U,64809,999,4975,.83295024E-3,.9864E-4,0
STARLINK-34608,2025-150W,2026-06-05T13:44:14.476992,14.98338453,.00032015,70.0001,272.7557,269.0739,91.0053,0,U,64810,999,4968,.30321877E-3,.3528E-4,0
STARLINK-34669,2025-150X,2026-06-06T00:51:11.537280,14.98340802,.00032255,70.0003,271.5582,270.9218,89.1572,0,U,64811,999,4975,.76641631E-3,.9066E-4,0
STARLINK-34644,2025-150Y,2026-06-05T14:38:34.445760,14.98338771,.00031868,70.0009,272.8376,270.5340,89.5454,0,U,64812,999,4968,.34315158E-3,.4005E-4,0
